[{"OBJECT_NAME":"ISS (ZARYA)","OBJECT_ID":"1998-067A","EPOCH":"2026-03-16T20:53:40.640928","MEAN_MOTION":15.48321468,"ECCENTRICITY":0.0006342,"INCLINATION":51.6334,"RA_OF_ASC_NODE":36.8567,"ARG_OF_PERICENTER":198.5376,"MEAN_ANOMALY":161.5382,"EPHEMERIS_TYPE":0,"CLASSIFICATION_TYPE":"U","NORAD_CAT_ID":25544,"ELEMENT_SET_NO":999,"REV_AT_EPOCH":55744,"BSTAR":0.00017131,"MEAN_MOTION_DOT":8.783e-5,"MEAN_MOTION_DDOT":0},{"OBJECT_NAME":"POISK","OBJECT_ID":"2009-060A","EPOCH":"2026-03-16T20:53:40.640928","MEAN_MOTION":15.48321468,"ECCENTRICITY":0.0006342,"INCLINATION":51.6334,"RA_OF_ASC_NODE":36.8567,"ARG_OF_PERICENTER":198.5376,"MEAN_ANOMALY":161.5382,"EPHEMERIS_TYPE":0,"CLASSIFICATION_TYPE":"U","NORAD_CAT_ID":36086,"ELEMENT_SET_NO":999,"REV_AT_EPOCH":55720,"BSTAR":0.00017131,"MEAN_MOTION_DOT":8.783e-5,"MEAN_MOTION_DDOT":0},{"OBJECT_NAME":"CSS (TIANHE)","OBJECT_ID":"2021-035A","EPOCH":"2026-03-16T13:29:03.688800","MEAN_MOTION":15.61049688,"ECCENTRICITY":0.0006265,"INCLINATION":41.4671,"RA_OF_ASC_NODE":166.3358,"ARG_OF_PERICENTER":313.809,"MEAN_ANOMALY":46.223,"EPHEMERIS_TYPE":0,"CLASSIFICATION_TYPE":"U","NORAD_CAT_ID":48274,"ELEMENT_SET_NO":999,"REV_AT_EPOCH":27868,"BSTAR":0.00025302,"MEAN_MOTION_DOT":0.00021647,"MEAN_MOTION_DDOT":0},{"OBJECT_NAME":"ISS (NAUKA)","OBJECT_ID":"2021-066A","EPOCH":"2026-03-16T20:53:40.640928","MEAN_MOTION":15.48321468,"ECCENTRICITY":0.0006342,"INCLINATION":51.6334,"RA_OF_ASC_NODE":36.8567,"ARG_OF_PERICENTER":198.5376,"MEAN_ANOMALY":161.5382,"EPHEMERIS_TYPE":0,"CLASSIFICATION_TYPE":"U","NORAD_CAT_ID":49044,"ELEMENT_SET_NO":999,"REV_AT_EPOCH":55724,"BSTAR":0.00017131,"MEAN_MOTION_DOT":8.783e-5,"MEAN_MOTION_DDOT":0},{"OBJECT_NAME":"FREGAT DEB","OBJECT_ID":"2011-037PF","EPOCH":"2026-03-16T20:32:25.902240","MEAN_MOTION":12.40450079,"ECCENTRICITY":0.0962839,"INCLINATION":51.651,"RA_OF_ASC_NODE":279.2359,"ARG_OF_PERICENTER":75.9641,"MEAN_ANOMALY":294.6223,"EPHEMERIS_TYPE":0,"CLASSIFICATION_TYPE":"U","NORAD_CAT_ID":49271,"ELEMENT_SET_NO":999,"REV_AT_EPOCH":21358,"BSTAR":0.018413,"MEAN_MOTION_DOT":0.00012952,"MEAN_MOTION_DDOT":0},{"OBJECT_NAME":"CSS (WENTIAN)","OBJECT_ID":"2022-085A","EPOCH":"2026-03-16T13:29:03.688800","MEAN_MOTION":15.61049688,"ECCENTRICITY":0.0006265,"INCLINATION":41.4671,"RA_OF_ASC_NODE":166.3358,"ARG_OF_PERICENTER":313.809,"MEAN_ANOMALY":46.223,"EPHEMERIS_TYPE":0,"CLASSIFICATION_TYPE":"U","NORAD_CAT_ID":53239,"ELEMENT_SET_NO":999,"REV_AT_EPOCH":27849,"BSTAR":0.00025302,"MEAN_MOTION_DOT":0.00021647,"MEAN_MOTION_DDOT":0},{"OBJECT_NAME":"CSS (MENGTIAN)","OBJECT_ID":"2022-143A","EPOCH":"2026-03-16T13:29:03.688800","MEAN_MOTION":15.61049688,"ECCENTRICITY":0.0006265,"INCLINATION":41.4671,"RA_OF_ASC_NODE":166.3358,"ARG_OF_PERICENTER":313.809,"MEAN_ANOMALY":46.223,"EPHEMERIS_TYPE":0,"CLASSIFICATION_TYPE":"U","NORAD_CAT_ID":54216,"ELEMENT_SET_NO":999,"REV_AT_EPOCH":27846,"BSTAR":0.00025302,"MEAN_MOTION_DOT":0.00021647,"MEAN_MOTION_DDOT":0},{"OBJECT_NAME":"PROGRESS-MS 31","OBJECT_ID":"2025-146A","EPOCH":"2026-03-16T03:51:18.372384","MEAN_MOTION":15.48306205,"ECCENTRICITY":0.00063428,"INCLINATION":51.6332,"RA_OF_ASC_NODE":40.3661,"ARG_OF_PERICENTER":195.9803,"MEAN_ANOMALY":164.0986,"EPHEMERIS_TYPE":0,"CLASSIFICATION_TYPE":"U","NORAD_CAT_ID":64751,"ELEMENT_SET_NO":999,"REV_AT_EPOCH":55446,"BSTAR":0.00016433499,"MEAN_MOTION_DOT":8.402e-5,"MEAN_MOTION_DDOT":0},{"OBJECT_NAME":"TIANZHOU-9","OBJECT_ID":"2025-149A","EPOCH":"2026-03-16T13:29:03.688800","MEAN_MOTION":15.61049688,"ECCENTRICITY":0.0006265,"INCLINATION":41.4671,"RA_OF_ASC_NODE":166.3358,"ARG_OF_PERICENTER":313.809,"MEAN_ANOMALY":46.223,"EPHEMERIS_TYPE":0,"CLASSIFICATION_TYPE":"U","NORAD_CAT_ID":64786,"ELEMENT_SET_NO":999,"REV_AT_EPOCH":27847,"BSTAR":0.00025302,"MEAN_MOTION_DOT":0.00021647,"MEAN_MOTION_DDOT":0},{"OBJECT_NAME":"PROGRESS-MS 32","OBJECT_ID":"2025-204A","EPOCH":"2026-03-16T05:24:14.973120","MEAN_MOTION":15.48307332,"ECCENTRICITY":0.0006342,"INCLINATION":51.6332,"RA_OF_ASC_NODE":40.0471,"ARG_OF_PERICENTER":196.1135,"MEAN_ANOMALY":163.9653,"EPHEMERIS_TYPE":0,"CLASSIFICATION_TYPE":"U","NORAD_CAT_ID":65586,"ELEMENT_SET_NO":999,"REV_AT_EPOCH":55729,"BSTAR":0.00016275,"MEAN_MOTION_DOT":8.317e-5,"MEAN_MOTION_DDOT":0},{"OBJECT_NAME":"YOTSUBA-KULOVER","OBJECT_ID":"1998-067XN","EPOCH":"2026-03-16T02:02:50.164512","MEAN_MOTION":15.83706108,"ECCENTRICITY":0.0004984,"INCLINATION":51.6209,"RA_OF_ASC_NODE":24.0437,"ARG_OF_PERICENTER":114.452,"MEAN_ANOMALY":245.7003,"EPHEMERIS_TYPE":0,"CLASSIFICATION_TYPE":"U","NORAD_CAT_ID":65941,"ELEMENT_SET_NO":999,"REV_AT_EPOCH":2451,"BSTAR":0.001115703,"MEAN_MOTION_DOT":0.00258905,"MEAN_MOTION_DDOT":0},{"OBJECT_NAME":"E-KAGAKU-1","OBJECT_ID":"1998-067XQ","EPOCH":"2026-03-16T20:22:11.142048","MEAN_MOTION":15.83578138,"ECCENTRICITY":0.0005485,"INCLINATION":51.6234,"RA_OF_ASC_NODE":20.1592,"ARG_OF_PERICENTER":124.3848,"MEAN_ANOMALY":235.7674,"EPHEMERIS_TYPE":0,"CLASSIFICATION_TYPE":"U","NORAD_CAT_ID":65943,"ELEMENT_SET_NO":999,"REV_AT_EPOCH":2463,"BSTAR":0.00098808,"MEAN_MOTION_DOT":0.00227021,"MEAN_MOTION_DDOT":0},{"OBJECT_NAME":"HRC MONOBLOCK CAMERA","OBJECT_ID":"1998-067XR","EPOCH":"2026-03-16T20:42:42.881184","MEAN_MOTION":15.63018806,"ECCENTRICITY":0.0003804,"INCLINATION":51.6286,"RA_OF_ASC_NODE":29.3073,"ARG_OF_PERICENTER":125.116,"MEAN_ANOMALY":235.0191,"EPHEMERIS_TYPE":0,"CLASSIFICATION_TYPE":"U","NORAD_CAT_ID":66052,"ELEMENT_SET_NO":999,"REV_AT_EPOCH":2351,"BSTAR":0.00049432,"MEAN_MOTION_DOT":0.00045525,"MEAN_MOTION_DDOT":0},{"OBJECT_NAME":"HTV-X1","OBJECT_ID":"2025-241A","EPOCH":"2026-03-14T08:15:41.711328","MEAN_MOTION":15.2291016,"ECCENTRICITY":0.0005741,"INCLINATION":51.6358,"RA_OF_ASC_NODE":50.71,"ARG_OF_PERICENTER":187.4047,"MEAN_ANOMALY":172.6846,"EPHEMERIS_TYPE":0,"CLASSIFICATION_TYPE":"U","NORAD_CAT_ID":66174,"ELEMENT_SET_NO":999,"REV_AT_EPOCH":2166,"BSTAR":0.00057087,"MEAN_MOTION_DOT":0.00013268,"MEAN_MOTION_DDOT":0},{"OBJECT_NAME":"SZ-21 MODULE","OBJECT_ID":"2025-246C","EPOCH":"2026-03-16T15:07:24.413088","MEAN_MOTION":15.6911664,"ECCENTRICITY":7.25e-5,"INCLINATION":41.4745,"RA_OF_ASC_NODE":160.6185,"ARG_OF_PERICENTER":306.4076,"MEAN_ANOMALY":53.6699,"EPHEMERIS_TYPE":0,"CLASSIFICATION_TYPE":"U","NORAD_CAT_ID":66515,"ELEMENT_SET_NO":999,"REV_AT_EPOCH":1916,"BSTAR":0.00027011,"MEAN_MOTION_DOT":0.00032043,"MEAN_MOTION_DDOT":0},{"OBJECT_NAME":"SHENZHOU-22","OBJECT_ID":"2025-272A","EPOCH":"2026-03-16T13:29:03.688800","MEAN_MOTION":15.61049688,"ECCENTRICITY":0.0006265,"INCLINATION":41.4671,"RA_OF_ASC_NODE":166.3358,"ARG_OF_PERICENTER":313.809,"MEAN_ANOMALY":46.223,"EPHEMERIS_TYPE":0,"CLASSIFICATION_TYPE":"U","NORAD_CAT_ID":66645,"ELEMENT_SET_NO":999,"REV_AT_EPOCH":27040,"BSTAR":0.00025302,"MEAN_MOTION_DOT":0.00021647,"MEAN_MOTION_DDOT":0},{"OBJECT_NAME":"SOYUZ-MS 28","OBJECT_ID":"2025-275A","EPOCH":"2026-03-16T20:53:40.640928","MEAN_MOTION":15.48321468,"ECCENTRICITY":0.0006342,"INCLINATION":51.6334,"RA_OF_ASC_NODE":36.8567,"ARG_OF_PERICENTER":198.5376,"MEAN_ANOMALY":161.5382,"EPHEMERIS_TYPE":0,"CLASSIFICATION_TYPE":"U","NORAD_CAT_ID":66664,"ELEMENT_SET_NO":999,"REV_AT_EPOCH":55748,"BSTAR":0.00017131,"MEAN_MOTION_DOT":8.783e-5,"MEAN_MOTION_DDOT":0}]
