{"fetched_at": "2026-03-17T06:20:33.692455+00:00", "count": 375, "satellites": [ {"name": "ISS (ZARYA)", "tle1": "1 25544U 98067A   26075.87060927  .00008783  00000+0  17131-3 0  9990", "tle2": "2 25544  51.6334  36.8567 0006342 198.5376 161.5382 15.48321468557446", "norad_id": 25544, "group": "stations", "highlight": true}, {"name": "POISK", "tle1": "1 36086U 09060A   26075.87060927  .00008783  00000+0  17131-3 0  9998", "tle2": "2 36086  51.6334  36.8567 0006342 198.5376 161.5382 15.48321468557203", "norad_id": 36086, "group": "stations", "highlight": false}, {"name": "CSS (TIANHE)", "tle1": "1 48274U 21035A   26075.56184825  .00021647  00000+0  25302-3 0  9999", "tle2": "2 48274  41.4671 166.3358 0006265 313.8090  46.2230 15.61049688278681", "norad_id": 48274, "group": "stations", "highlight": false}, {"name": "ISS (NAUKA)", "tle1": "1 49044U 21066A   26075.87060927  .00008783  00000+0  17131-3 0  9996", "tle2": "2 49044  51.6334  36.8567 0006342 198.5376 161.5382 15.48321468557245", "norad_id": 49044, "group": "stations", "highlight": true}, {"name": "FREGAT DEB", "tle1": "1 49271U 11037PF  26075.85585535  .00012952  00000+0  18413-1 0  9995", "tle2": "2 49271  51.6510 279.2359 0962839  75.9641 294.6223 12.40450079213588", "norad_id": 49271, "group": "stations", "highlight": false}, {"name": "CSS (WENTIAN)", "tle1": "1 53239U 22085A   26075.56184825  .00021647  00000+0  25302-3 0  9992", "tle2": "2 53239  41.4671 166.3358 0006265 313.8090  46.2230 15.61049688278497", "norad_id": 53239, "group": "stations", "highlight": false}, {"name": "CSS (MENGTIAN)", "tle1": "1 54216U 22143A   26075.56184825  .00021647  00000+0  25302-3 0  9993", "tle2": "2 54216  41.4671 166.3358 0006265 313.8090  46.2230 15.61049688278460", "norad_id": 54216, "group": "stations", "highlight": false}, {"name": "PROGRESS-MS 31", "tle1": "1 64751U 25146A   26075.16062931  .00008402  00000+0  16433-3 0  9992", "tle2": "2 64751  51.6332  40.3661 0006342 195.9803 164.0986 15.48306205554467", "norad_id": 64751, "group": "stations", "highlight": false}, {"name": "TIANZHOU-9", "tle1": "1 64786U 25149A   26075.56184825  .00021647  00000+0  25302-3 0  9995", "tle2": "2 64786  41.4671 166.3358 0006265 313.8090  46.2230 15.61049688278474", "norad_id": 64786, "group": "stations", "highlight": false}, {"name": "PROGRESS-MS 32", "tle1": "1 65586U 25204A   26075.22517330  .00008317  00000+0  16275-3 0  9998", "tle2": "2 65586  51.6332  40.0471 0006342 196.1135 163.9653 15.48307332557296", "norad_id": 65586, "group": "stations", "highlight": false}, {"name": "YOTSUBA-KULOVER", "tle1": "1 65941U 98067XN  26075.08530283  .00258905  00000+0  11157-2 0  9999", "tle2": "2 65941  51.6209  24.0437 0004984 114.4520 245.7003 15.83706108 24514", "norad_id": 65941, "group": "stations", "highlight": false}, {"name": "E-KAGAKU-1", "tle1": "1 65943U 98067XQ  26075.84874007  .00227021  00000+0  98808-3 0  9994", "tle2": "2 65943  51.6234  20.1592 0005485 124.3848 235.7674 15.83578138 24639", "norad_id": 65943, "group": "stations", "highlight": false}, {"name": "HRC MONOBLOCK CAMERA", "tle1": "1 66052U 98067XR  26075.86299631  .00045525  00000+0  49432-3 0  9998", "tle2": "2 66052  51.6286  29.3073 0003804 125.1160 235.0191 15.63018806 23514", "norad_id": 66052, "group": "stations", "highlight": false}, {"name": "HTV-X1", "tle1": "1 66174U 25241A   26073.34423277  .00013268  00000+0  57087-3 0  9997", "tle2": "2 66174  51.6358  50.7100 0005741 187.4047 172.6846 15.22910160 21661", "norad_id": 66174, "group": "stations", "highlight": false}, {"name": "SZ-21 MODULE", "tle1": "1 66515U 25246C   26075.63014367  .00032043  00000+0  27011-3 0  9997", "tle2": "2 66515  41.4745 160.6185 0000725 306.4076  53.6699 15.69116640 19161", "norad_id": 66515, "group": "stations", "highlight": false}, {"name": "SHENZHOU-22", "tle1": "1 66645U 25272A   26075.56184825  .00021647  00000+0  25302-3 0  9998", "tle2": "2 66645  41.4671 166.3358 0006265 313.8090  46.2230 15.61049688270405", "norad_id": 66645, "group": "stations", "highlight": false}, {"name": "SOYUZ-MS 28", "tle1": "1 66664U 25275A   26075.87060927  .00008783  00000+0  17131-3 0  9999", "tle2": "2 66664  51.6334  36.8567 0006342 198.5376 161.5382 15.48321468557488", "norad_id": 66664, "group": "stations", "highlight": false}]}